GLOBALSTAR M045 [-]     
1 25676U 99019A   23286.84909237 -.00000058  00000+0  31098-3 0  9994
2 25676  51.9957 250.4977 0001196  64.1505 311.4703 12.27017539118226
GLOBALSTAR M019 [-]     
1 25677U 99019B   23286.90109196  .00000078  00000+0  17506-2 0  9996
2 25677  51.9899 337.6500 0001245 146.3083  24.5319 12.13845693110784
GLOBALSTAR M044 [-]     
1 25678U 99019C   23286.24250250 -.00000045  00000+0  53789-3 0  9991
2 25678  51.9958 214.1589 0006193 302.8480 224.2503 11.90224037 98331
GLOBALSTAR M042 [-]     
1 25679U 99019D   23286.88648414 -.00000036  00000+0  52522-3 0  9999
2 25679  52.0036 339.4429 0003477 117.9198  53.6746 12.22048260110390
GLOBALSTAR M025 [-]     
1 25770U 99031A   23286.85777309 -.00000028  00000+0  12224-2 0  9993
2 25770  51.9783 137.7649 0001053 148.4672 302.8608 11.22546392412946
GLOBALSTAR M049 [-]     
1 25771U 99031B   23286.89086720 -.00000065  00000+0  23249-4 0  9990
2 25771  51.9838 141.6798 0003770  68.3664 291.7533 11.12101512 49305
GLOBALSTAR M047 [-]     
1 25772U 99031C   23286.90940907 -.00000051  00000+0  50039-3 0  9990
2 25772  51.9823 197.1013 0015893 294.2139  65.7006 11.31916163401776
GLOBALSTAR M052 [-]     
1 25773U 99031D   23286.71235383 -.00000090  00000+0 -80257-3 0  9994
2 25773  51.9848 259.3686 0002084 243.9636 288.1829 11.15046015410183
